QIANFAN-49              
1 62250U 24232P   25209.59792092  .00000038  00000+0  40621-4 0  9996
2 62250  88.9932  55.1020 0012614 226.5507 133.4595 13.50960906 49327
QIANFAN-50              
1 62251U 24232Q   25209.62279306  .00000023  00000+0  16913-4 0  9990
2 62251  88.9938  55.1001 0014241 228.5758 131.4170 13.50953948 49359
QIANFAN-51              
1 62252U 24232R   25209.82851225  .00000038  00000+0  40643-4 0  9992
2 62252  88.9932  55.0816 0011680 231.1293 128.8817 13.50957999 49375
QIANFAN-52              
1 62253U 24232S   25209.63510400  .00000044  00000+0  49260-4 0  9990
2 62253  88.9928  54.9801 0013831 223.8365 136.1690 13.50959099 49432
QIANFAN-53              
1 62254U 24232T   25209.83674104  .00000029  00000+0  26854-4 0  9992
2 62254  88.9936  55.0538 0012703 223.9996 136.0145 13.50952839 49427
QIANFAN-54              
1 62255U 24232U   25209.58153418  .00000024  00000+0  18406-4 0  9994
2 62255  88.9926  54.7701 0000244 331.3635  28.7503 13.50951771 80891
QIANFAN-55              
1 62785U 25016A   25209.53357219  .00000151  00000+0  21452-3 0  9998
2 62785  88.9853 117.3582 0018989  30.2117 330.0125 13.50962074 28660
QIANFAN-56              
1 62786U 25016B   25209.55000315  .00000150  00000+0  21404-3 0  9999
2 62786  88.9826 117.2303 0017701  32.7674 327.4571 13.50953973 28716
